GLOBALSTAR M045         
1 25676U 99019A   26011.55921361 -.00000100  00000+0 -57790-4 0  9990
2 25676  51.9977  71.3593 0000420 158.2224 300.7975 12.27070911218972
GLOBALSTAR M019         
1 25677U 99019B   26011.58740298 -.00000152  00000+0 -64836-3 0  9997
2 25677  51.9852 216.3132 0002178  51.2125 346.6800 12.13881649210453
GLOBALSTAR M044         
1 25678U 99019C   26011.52279867 -.00000060  00000+0  32878-3 0  9999
2 25678  51.9935 193.9133 0007243  82.4197 311.1940 11.90263950196133
GLOBALSTAR M042         
1 25679U 99019D   26011.45140080 -.00000053  00000+0  36997-3 0  9994
2 25679  51.9992 183.0127 0003280  31.0897 345.0538 12.22095990210728
GLOBALSTAR M025         
1 25770U 99031A   26011.51946906 -.00000061  00000+0  18685-3 0  9991
2 25770  51.9838  36.6524 0002391 132.1507  37.3324 11.22560366505102
GLOBALSTAR M049         
1 25771U 99031B   26011.51421711 -.00000079  00000+0 -46398-3 0  9996
2 25771  51.9885  81.8965 0002546  22.9588 337.1322 11.12124347140606
GLOBALSTAR M047         
1 25772U 99031C   26011.37832247 -.00000065  00000+0  11417-3 0  9999
2 25772  51.9846  59.2834 0016214 258.9281 100.9701 11.31931925494682
GLOBALSTAR M052         
1 25773U 99031D   26011.65537670 -.00000063  00000+0  87974-4 0  9993
2 25773  51.9833 187.3198 0003383 136.6852 304.0216 11.15063389501762
